CCSDS_OMM_VERS = 2.0
CREATION_DATE  = 
ORIGINATOR     = 

OBJECT_NAME    = COSMOS 1933
OBJECT_ID      = 1988-020A
CENTER_NAME    = EARTH
REF_FRAME      = TEME
TIME_SYSTEM    = UTC
MEAN_ELEMENT_THEORY = SGP/SGP4

EPOCH          = 2026-02-19T01:37:56.049312
MEAN_MOTION    = 15.17813064
ECCENTRICITY   = .000276
INCLINATION    = 82.5104
RA_OF_ASC_NODE = 269.3388
ARG_OF_PERICENTER = 267.2983
MEAN_ANOMALY   = 92.7934

EPHEMERIS_TYPE = 0
CLASSIFICATION_TYPE = U
NORAD_CAT_ID   = 18958
ELEMENT_SET_NO = 999
REV_AT_EPOCH   = 4740
BSTAR          = .16446E-3
MEAN_MOTION_DOT = .3355E-4
MEAN_MOTION_DDOT = 0

CCSDS_OMM_VERS = 2.0
CREATION_DATE  = 
ORIGINATOR     = 

OBJECT_NAME    = SL-3 R/B
OBJECT_ID      = 1988-032B
CENTER_NAME    = EARTH
REF_FRAME      = TEME
TIME_SYSTEM    = UTC
MEAN_ELEMENT_THEORY = SGP/SGP4

EPOCH          = 2026-02-19T02:23:23.566848
MEAN_MOTION    = 15.19662871
ECCENTRICITY   = .0024421
INCLINATION    = 97.5165
RA_OF_ASC_NODE = 33.4237
ARG_OF_PERICENTER = 301.3688
MEAN_ANOMALY   = 58.5157

EPHEMERIS_TYPE = 0
CLASSIFICATION_TYPE = U
NORAD_CAT_ID   = 19046
ELEMENT_SET_NO = 999
REV_AT_EPOCH   = 4928
BSTAR          = .26205E-3
MEAN_MOTION_DOT = .5562E-4
MEAN_MOTION_DDOT = 0

CCSDS_OMM_VERS = 2.0
CREATION_DATE  = 
ORIGINATOR     = 

OBJECT_NAME    = SL-16 R/B
OBJECT_ID      = 1988-039B
CENTER_NAME    = EARTH
REF_FRAME      = TEME
TIME_SYSTEM    = UTC
MEAN_ELEMENT_THEORY = SGP/SGP4

EPOCH          = 2026-02-19T04:00:08.375040
MEAN_MOTION    = 14.19613821
ECCENTRICITY   = .0021604
INCLINATION    = 71.0139
RA_OF_ASC_NODE = 107.7178
ARG_OF_PERICENTER = 2.1821
MEAN_ANOMALY   = 357.9395

EPHEMERIS_TYPE = 0
CLASSIFICATION_TYPE = U
NORAD_CAT_ID   = 19120
ELEMENT_SET_NO = 999
REV_AT_EPOCH   = 95575
BSTAR          = .43174E-5
MEAN_MOTION_DOT = -.39E-6
MEAN_MOTION_DDOT = 0

CCSDS_OMM_VERS = 2.0
CREATION_DATE  = 
ORIGINATOR     = 

OBJECT_NAME    = COSMOS 1953
OBJECT_ID      = 1988-050A
CENTER_NAME    = EARTH
REF_FRAME      = TEME
TIME_SYSTEM    = UTC
MEAN_ELEMENT_THEORY = SGP/SGP4

EPOCH          = 2026-02-18T20:02:10.236480
MEAN_MOTION    = 15.28147513
ECCENTRICITY   = .0011361
INCLINATION    = 82.5110
RA_OF_ASC_NODE = 177.1993
ARG_OF_PERICENTER = 185.3196
MEAN_ANOMALY   = 174.7925

EPHEMERIS_TYPE = 0
CLASSIFICATION_TYPE = U
NORAD_CAT_ID   = 19210
ELEMENT_SET_NO = 999
REV_AT_EPOCH   = 3490
BSTAR          = .33997E-3
MEAN_MOTION_DOT = .9377E-4
MEAN_MOTION_DDOT = 0

CCSDS_OMM_VERS = 2.0
CREATION_DATE  = 
ORIGINATOR     = 

OBJECT_NAME    = SL-8 R/B
OBJECT_ID      = 1988-053B
CENTER_NAME    = EARTH
REF_FRAME      = TEME
TIME_SYSTEM    = UTC
MEAN_ELEMENT_THEORY = SGP/SGP4

EPOCH          = 2026-02-18T19:55:41.930688
MEAN_MOTION    = 14.38903754
ECCENTRICITY   = .0020819
INCLINATION    = 74.0484
RA_OF_ASC_NODE = 147.2267
ARG_OF_PERICENTER = 329.6381
MEAN_ANOMALY   = 169.9660

EPHEMERIS_TYPE = 0
CLASSIFICATION_TYPE = U
NORAD_CAT_ID   = 19257
ELEMENT_SET_NO = 999
REV_AT_EPOCH   = 97388
BSTAR          = .79293E-4
MEAN_MOTION_DOT = .218E-5
MEAN_MOTION_DDOT = 0

CCSDS_OMM_VERS = 2.0
CREATION_DATE  = 
ORIGINATOR     = 

OBJECT_NAME    = COSMOS 1975
OBJECT_ID      = 1988-093A
CENTER_NAME    = EARTH
REF_FRAME      = TEME
TIME_SYSTEM    = UTC
MEAN_ELEMENT_THEORY = SGP/SGP4

EPOCH          = 2026-02-19T04:34:44.598144
MEAN_MOTION    = 15.27748462
ECCENTRICITY   = .0010597
INCLINATION    = 82.5219
RA_OF_ASC_NODE = 136.2471
ARG_OF_PERICENTER = 230.5237
MEAN_ANOMALY   = 129.5066

EPHEMERIS_TYPE = 0
CLASSIFICATION_TYPE = U
NORAD_CAT_ID   = 19573
ELEMENT_SET_NO = 999
REV_AT_EPOCH   = 1658
BSTAR          = .28478E-3
MEAN_MOTION_DOT = .7762E-4
MEAN_MOTION_DDOT = 0

CCSDS_OMM_VERS = 2.0
CREATION_DATE  = 
ORIGINATOR     = 

OBJECT_NAME    = SL-14 R/B
OBJECT_ID      = 1988-093B
CENTER_NAME    = EARTH
REF_FRAME      = TEME
TIME_SYSTEM    = UTC
MEAN_ELEMENT_THEORY = SGP/SGP4

EPOCH          = 2026-02-19T01:44:26.259360
MEAN_MOTION    = 14.85633087
ECCENTRICITY   = .0022317
INCLINATION    = 82.5279
RA_OF_ASC_NODE = 59.5247
ARG_OF_PERICENTER = 99.1004
MEAN_ANOMALY   = 319.7980

EPHEMERIS_TYPE = 0
CLASSIFICATION_TYPE = U
NORAD_CAT_ID   = 19574
ELEMENT_SET_NO = 999
REV_AT_EPOCH   = 99827
BSTAR          = .46125E-4
MEAN_MOTION_DOT = .426E-5
MEAN_MOTION_DDOT = 0

CCSDS_OMM_VERS = 2.0
CREATION_DATE  = 
ORIGINATOR     = 

OBJECT_NAME    = SL-16 R/B
OBJECT_ID      = 1988-102B
CENTER_NAME    = EARTH
REF_FRAME      = TEME
TIME_SYSTEM    = UTC
MEAN_ELEMENT_THEORY = SGP/SGP4

EPOCH          = 2026-02-18T20:00:12.535488
MEAN_MOTION    = 14.16152042
ECCENTRICITY   = .0012939
INCLINATION    = 70.9994
RA_OF_ASC_NODE = 191.1684
ARG_OF_PERICENTER = 31.2043
MEAN_ANOMALY   = 328.9845

EPHEMERIS_TYPE = 0
CLASSIFICATION_TYPE = U
NORAD_CAT_ID   = 19650
ELEMENT_SET_NO = 999
REV_AT_EPOCH   = 92422
BSTAR          = .11118E-4
MEAN_MOTION_DOT = -.26E-6
MEAN_MOTION_DDOT = 0

CCSDS_OMM_VERS = 2.0
CREATION_DATE  = 
ORIGINATOR     = 

OBJECT_NAME    = INTERCOSMOS 24
OBJECT_ID      = 1989-080A
CENTER_NAME    = EARTH
REF_FRAME      = TEME
TIME_SYSTEM    = UTC
MEAN_ELEMENT_THEORY = SGP/SGP4

EPOCH          = 2026-02-19T03:17:13.237728
MEAN_MOTION    = 12.59528928
ECCENTRICITY   = .1187383
INCLINATION    = 82.6051
RA_OF_ASC_NODE = 116.4827
ARG_OF_PERICENTER = 335.9180
MEAN_ANOMALY   = 19.0459

EPHEMERIS_TYPE = 0
CLASSIFICATION_TYPE = U
NORAD_CAT_ID   = 20261
ELEMENT_SET_NO = 999
REV_AT_EPOCH   = 66446
BSTAR          = .15971E-3
MEAN_MOTION_DOT = .546E-5
MEAN_MOTION_DDOT = 0

CCSDS_OMM_VERS = 2.0
CREATION_DATE  = 
ORIGINATOR     = 

OBJECT_NAME    = SL-14 R/B
OBJECT_ID      = 1989-080C
CENTER_NAME    = EARTH
REF_FRAME      = TEME
TIME_SYSTEM    = UTC
MEAN_ELEMENT_THEORY = SGP/SGP4

EPOCH          = 2026-02-18T19:57:07.388928
MEAN_MOTION    = 12.50467829
ECCENTRICITY   = .1229756
INCLINATION    = 82.5959
RA_OF_ASC_NODE = 185.2903
ARG_OF_PERICENTER = 227.8609
MEAN_ANOMALY   = 121.1448

EPHEMERIS_TYPE = 0
CLASSIFICATION_TYPE = U
NORAD_CAT_ID   = 20262
ELEMENT_SET_NO = 999
REV_AT_EPOCH   = 65779
BSTAR          = .14764E-3
MEAN_MOTION_DOT = .492E-5
MEAN_MOTION_DDOT = 0

CCSDS_OMM_VERS = 2.0
CREATION_DATE  = 
ORIGINATOR     = 

OBJECT_NAME    = DELTA 1 R/B
OBJECT_ID      = 1989-089B
CENTER_NAME    = EARTH
REF_FRAME      = TEME
TIME_SYSTEM    = UTC
MEAN_ELEMENT_THEORY = SGP/SGP4

EPOCH          = 2026-02-19T01:35:12.812064
MEAN_MOTION    = 14.50646749
ECCENTRICITY   = .0069052
INCLINATION    = 97.0718
RA_OF_ASC_NODE = 260.4652
ARG_OF_PERICENTER = 180.3137
MEAN_ANOMALY   = 179.8030

EPHEMERIS_TYPE = 0
CLASSIFICATION_TYPE = U
NORAD_CAT_ID   = 20323
ELEMENT_SET_NO = 999
REV_AT_EPOCH   = 89303
BSTAR          = .80234E-4
MEAN_MOTION_DOT = .289E-5
MEAN_MOTION_DDOT = 0

CCSDS_OMM_VERS = 2.0
CREATION_DATE  = 
ORIGINATOR     = 

OBJECT_NAME    = ARIANE 40 R/B
OBJECT_ID      = 1990-005H
CENTER_NAME    = EARTH
REF_FRAME      = TEME
TIME_SYSTEM    = UTC
MEAN_ELEMENT_THEORY = SGP/SGP4

EPOCH          = 2026-02-19T02:53:17.379456
MEAN_MOTION    = 14.39857350
ECCENTRICITY   = .0008978
INCLINATION    = 98.3125
RA_OF_ASC_NODE = 111.3312
ARG_OF_PERICENTER = 258.4866
MEAN_ANOMALY   = 101.5315

EPHEMERIS_TYPE = 0
CLASSIFICATION_TYPE = U
NORAD_CAT_ID   = 20443
ELEMENT_SET_NO = 999
REV_AT_EPOCH   = 89013
BSTAR          = .85492E-4
MEAN_MOTION_DOT = .226E-5
MEAN_MOTION_DDOT = 0

