COSMOS 1933             
1 18958U 88020A   26050.06800983  .00003355  00000+0  16446-3 0  9995
2 18958  82.5104 269.3388 0002760 267.2983  92.7934 15.17813064 47409
SL-3 R/B                
1 19046U 88032B   26050.09957832  .00005562  00000+0  26205-3 0  9992
2 19046  97.5165  33.4237 0024421 301.3688  58.5157 15.19662871 49289
SL-16 R/B               
1 19120U 88039B   26050.16676360 -.00000039  00000+0  43174-5 0  9995
2 19120  71.0139 107.7178 0021604   2.1821 357.9395 14.19613821955752
COSMOS 1953             
1 19210U 88050A   26049.83484070  .00009377  00000+0  33997-3 0  9998
2 19210  82.5110 177.1993 0011361 185.3196 174.7925 15.28147513 34902
SL-8 R/B                
1 19257U 88053B   26049.83034642  .00000218  00000+0  79293-4 0  9993
2 19257  74.0484 147.2267 0020819 329.6381 169.9660 14.38903754973880
COSMOS 1975             
1 19573U 88093A   26050.19079396  .00007762  00000+0  28478-3 0  9993
2 19573  82.5219 136.2471 0010597 230.5237 129.5066 15.27748462 16587
SL-14 R/B               
1 19574U 88093B   26050.07252615  .00000426  00000+0  46125-4 0  9998
2 19574  82.5279  59.5247 0022317  99.1004 319.7980 14.85633087998278
SL-16 R/B               
1 19650U 88102B   26049.83347842 -.00000026  00000+0  11118-4 0  9994
2 19650  70.9994 191.1684 0012939  31.2043 328.9845 14.16152042924222
INTERCOSMOS 24          
1 20261U 89080A   26050.13695877  .00000546  00000+0  15971-3 0  9995
2 20261  82.6051 116.4827 1187383 335.9180  19.0459 12.59528928664469
SL-14 R/B               
1 20262U 89080C   26049.83133552  .00000492  00000+0  14764-3 0  9997
2 20262  82.5959 185.2903 1229756 227.8609 121.1448 12.50467829657795
DELTA 1 R/B             
1 20323U 89089B   26050.06612051  .00000289  00000+0  80234-4 0  9997
2 20323  97.0718 260.4652 0069052 180.3137 179.8030 14.50646749893031
ARIANE 40 R/B           
1 20443U 90005H   26050.12034004  .00000226  00000+0  85492-4 0  9995
2 20443  98.3125 111.3312 0008978 258.4866 101.5315 14.39857350890138
